<?xml version="1.0" encoding="UTF-8"?><kml xmlns="http://www.opengis.net/kml/2.2" xmlns:gx="http://www.google.com/kml/ext/2.2"><!-- Hermanus 19-27 - 3D Golf Course Fly-Over - ProVisualizer.com --><Document><name>Hermanus 19-27</name><open>1</open><Style id="LS1"><LineStyle><color>FFFFFFFF</color><width>1</width><gx:labelVisibility>0</gx:labelVisibility></LineStyle></Style><Folder><name>Show Tees</name><open>0</open><Placemark><name>Hole 1 Tee</name><visibility>0</visibility><styleUrl>#LS1</styleUrl><LineString><extrude>0</extrude><tessellate>0</tessellate><altitudeMode>relativeToGround</altitudeMode><coordinates>19.254181625418,-34.409436140944,0 19.254181625418,-34.409436140944,2 </coordinates></LineString></Placemark><Placemark><name>Hole 2 Tee</name><visibility>0</visibility><styleUrl>#LS1</styleUrl><LineString><extrude>0</extrude><tessellate>0</tessellate><altitudeMode>relativeToGround</altitudeMode><coordinates>19.257508025751,-34.405622840562,0 19.257508025751,-34.405622840562,2 </coordinates></LineString></Placemark><Placemark><name>Hole 3 Tee</name><visibility>0</visibility><styleUrl>#LS1</styleUrl><LineString><extrude>0</extrude><tessellate>0</tessellate><altitudeMode>relativeToGround</altitudeMode><coordinates>19.252992725299,-34.406411240641,0 19.252992725299,-34.406411240641,2 </coordinates></LineString></Placemark><Placemark><name>Hole 4 Tee</name><visibility>0</visibility><styleUrl>#LS1</styleUrl><LineString><extrude>0</extrude><tessellate>0</tessellate><altitudeMode>relativeToGround</altitudeMode><coordinates>19.251708425171,-34.405387040539,0 19.251708425171,-34.405387040539,2 </coordinates></LineString></Placemark><Placemark><name>Hole 5 Tee</name><visibility>0</visibility><styleUrl>#LS1</styleUrl><LineString><extrude>0</extrude><tessellate>0</tessellate><altitudeMode>relativeToGround</altitudeMode><coordinates>19.251084725108,-34.410043641004,0 19.251084725108,-34.410043641004,2 </coordinates></LineString></Placemark><Placemark><name>Hole 6 Tee</name><visibility>0</visibility><styleUrl>#LS1</styleUrl><LineString><extrude>0</extrude><tessellate>0</tessellate><altitudeMode>relativeToGround</altitudeMode><coordinates>19.249452124945,-34.407539840754,0 19.249452124945,-34.407539840754,2 </coordinates></LineString></Placemark><Placemark><name>Hole 7 Tee</name><visibility>0</visibility><styleUrl>#LS1</styleUrl><LineString><extrude>0</extrude><tessellate>0</tessellate><altitudeMode>relativeToGround</altitudeMode><coordinates>19.24870062487,-34.407716240772,0 19.24870062487,-34.407716240772,2 </coordinates></LineString></Placemark><Placemark><name>Hole 8 Tee</name><visibility>0</visibility><styleUrl>#LS1</styleUrl><LineString><extrude>0</extrude><tessellate>0</tessellate><altitudeMode>relativeToGround</altitudeMode><coordinates>19.245558724556,-34.407591140759,0 19.245558724556,-34.407591140759,2 </coordinates></LineString></Placemark><Placemark><name>Hole 9 Tee</name><visibility>0</visibility><styleUrl>#LS1</styleUrl><LineString><extrude>0</extrude><tessellate>0</tessellate><altitudeMode>relativeToGround</altitudeMode><coordinates>19.248306424831,-34.409277740928,0 19.248306424831,-34.409277740928,2 </coordinates></LineString></Placemark></Folder><Folder><name>Show Pins</name><open>0</open><Placemark><name>Hole 1 Pin</name><visibility>1</visibility><styleUrl>#LS1</styleUrl><LineString><extrude>0</extrude><tessellate>0</tessellate><altitudeMode>relativeToGround</altitudeMode><coordinates>19.256846525685,-34.406248340625,0 19.256846525685,-34.406248340625,2 </coordinates></LineString></Placemark><Placemark><name>Hole 2 Pin</name><visibility>1</visibility><styleUrl>#LS1</styleUrl><LineString><extrude>0</extrude><tessellate>0</tessellate><altitudeMode>relativeToGround</altitudeMode><coordinates>19.253709125371,-34.406146640615,0 19.253709125371,-34.406146640615,2 </coordinates></LineString></Placemark><Placemark><name>Hole 3 Pin</name><visibility>1</visibility><styleUrl>#LS1</styleUrl><LineString><extrude>0</extrude><tessellate>0</tessellate><altitudeMode>relativeToGround</altitudeMode><coordinates>19.252275425228,-34.405270940527,0 19.252275425228,-34.405270940527,2 </coordinates></LineString></Placemark><Placemark><name>Hole 4 Pin</name><visibility>1</visibility><styleUrl>#LS1</styleUrl><LineString><extrude>0</extrude><tessellate>0</tessellate><altitudeMode>relativeToGround</altitudeMode><coordinates>19.251354725135,-34.409764640976,0 19.251354725135,-34.409764640976,2 </coordinates></LineString></Placemark><Placemark><name>Hole 5 Pin</name><visibility>1</visibility><styleUrl>#LS1</styleUrl><LineString><extrude>0</extrude><tessellate>0</tessellate><altitudeMode>relativeToGround</altitudeMode><coordinates>19.250215325022,-34.407109640711,0 19.250215325022,-34.407109640711,2 </coordinates></LineString></Placemark><Placemark><name>Hole 6 Pin</name><visibility>1</visibility><styleUrl>#LS1</styleUrl><LineString><extrude>0</extrude><tessellate>0</tessellate><altitudeMode>relativeToGround</altitudeMode><coordinates>19.247943724794,-34.406966540697,0 19.247943724794,-34.406966540697,2 </coordinates></LineString></Placemark><Placemark><name>Hole 7 Pin</name><visibility>1</visibility><styleUrl>#LS1</styleUrl><LineString><extrude>0</extrude><tessellate>0</tessellate><altitudeMode>relativeToGround</altitudeMode><coordinates>19.245327424533,-34.406524640652,0 19.245327424533,-34.406524640652,2 </coordinates></LineString></Placemark><Placemark><name>Hole 8 Pin</name><visibility>1</visibility><styleUrl>#LS1</styleUrl><LineString><extrude>0</extrude><tessellate>0</tessellate><altitudeMode>relativeToGround</altitudeMode><coordinates>19.248965224897,-34.408313840831,0 19.248965224897,-34.408313840831,2 </coordinates></LineString></Placemark><Placemark><name>Hole 9 Pin</name><visibility>1</visibility><styleUrl>#LS1</styleUrl><LineString><extrude>0</extrude><tessellate>0</tessellate><altitudeMode>relativeToGround</altitudeMode><coordinates>19.253858525386,-34.410486441049,0 19.253858525386,-34.410486441049,2 </coordinates></LineString></Placemark></Folder><Folder><name>Show Targets</name><open>0</open><Placemark><name>Hole 1 Target 1</name><visibility>1</visibility><styleUrl>#LS1</styleUrl><LineString><extrude>0</extrude><tessellate>0</tessellate><altitudeMode>relativeToGround</altitudeMode><coordinates>19.255692725569,-34.40740304074,0 19.255692725569,-34.40740304074,2 </coordinates></LineString></Placemark><Placemark><name>Hole 2 Target 1</name><visibility>1</visibility><styleUrl>#LS1</styleUrl><LineString><extrude>0</extrude><tessellate>0</tessellate><altitudeMode>relativeToGround</altitudeMode><coordinates>19.254754025475,-34.4059981406,0 19.254754025475,-34.4059981406,2 </coordinates></LineString></Placemark><Placemark><name>Hole 4 Target 1</name><visibility>1</visibility><styleUrl>#LS1</styleUrl><LineString><extrude>0</extrude><tessellate>0</tessellate><altitudeMode>relativeToGround</altitudeMode><coordinates>19.251453725145,-34.407763040776,0 19.251453725145,-34.407763040776,2 </coordinates></LineString></Placemark><Placemark><name>Hole 4 Target 2</name><visibility>1</visibility><styleUrl>#LS1</styleUrl><LineString><extrude>0</extrude><tessellate>0</tessellate><altitudeMode>relativeToGround</altitudeMode><coordinates>19.25129802513,-34.409278640928,0 19.25129802513,-34.409278640928,2 </coordinates></LineString></Placemark><Placemark><name>Hole 5 Target 1</name><visibility>1</visibility><styleUrl>#LS1</styleUrl><LineString><extrude>0</extrude><tessellate>0</tessellate><altitudeMode>relativeToGround</altitudeMode><coordinates>19.250113625011,-34.408150040815,0 19.250113625011,-34.408150040815,2 </coordinates></LineString></Placemark><Placemark><name>Hole 7 Target 1</name><visibility>1</visibility><styleUrl>#LS1</styleUrl><LineString><extrude>0</extrude><tessellate>0</tessellate><altitudeMode>relativeToGround</altitudeMode><coordinates>19.246192324619,-34.407178040718,0 19.246192324619,-34.407178040718,2 </coordinates></LineString></Placemark><Placemark><name>Hole 8 Target 1</name><visibility>1</visibility><styleUrl>#LS1</styleUrl><LineString><extrude>0</extrude><tessellate>0</tessellate><altitudeMode>relativeToGround</altitudeMode><coordinates>19.248040024804,-34.408208540821,0 19.248040024804,-34.408208540821,2 </coordinates></LineString></Placemark><Placemark><name>Hole 9 Target 1</name><visibility>1</visibility><styleUrl>#LS1</styleUrl><LineString><extrude>0</extrude><tessellate>0</tessellate><altitudeMode>relativeToGround</altitudeMode><coordinates>19.250894825089,-34.410427941043,0 19.250894825089,-34.410427941043,2 </coordinates></LineString></Placemark><Placemark><name>Hole 9 Target 2</name><visibility>1</visibility><styleUrl>#LS1</styleUrl><LineString><extrude>0</extrude><tessellate>0</tessellate><altitudeMode>relativeToGround</altitudeMode><coordinates>19.253287025329,-34.410453141045,0 19.253287025329,-34.410453141045,2 </coordinates></LineString></Placemark></Folder><Folder><name>Show Center Lines</name><open>0</open><Placemark><name>Hole 1 Center Line</name><visibility>0</visibility><styleUrl>#LS1</styleUrl><LineString><extrude>0</extrude><tessellate>0</tessellate><altitudeMode>relativeToGround</altitudeMode><coordinates>19.254181625418,-34.409436140944,1 19.255692725569,-34.40740304074,1 19.256846525685,-34.406248340625,1 </coordinates></LineString></Placemark><Placemark><name>Hole 2 Center Line</name><visibility>0</visibility><styleUrl>#LS1</styleUrl><LineString><extrude>0</extrude><tessellate>0</tessellate><altitudeMode>relativeToGround</altitudeMode><coordinates>19.257508025751,-34.405622840562,1 19.254754025475,-34.4059981406,1 19.253709125371,-34.406146640615,1 </coordinates></LineString></Placemark><Placemark><name>Hole 3 Center Line</name><visibility>0</visibility><styleUrl>#LS1</styleUrl><LineString><extrude>0</extrude><tessellate>0</tessellate><altitudeMode>relativeToGround</altitudeMode><coordinates>19.252992725299,-34.406411240641,1 19.252275425228,-34.405270940527,1 </coordinates></LineString></Placemark><Placemark><name>Hole 4 Center Line</name><visibility>0</visibility><styleUrl>#LS1</styleUrl><LineString><extrude>0</extrude><tessellate>0</tessellate><altitudeMode>relativeToGround</altitudeMode><coordinates>19.251708425171,-34.405387040539,1 19.251453725145,-34.407763040776,1 19.25129802513,-34.409278640928,1 19.251354725135,-34.409764640976,1 </coordinates></LineString></Placemark><Placemark><name>Hole 5 Center Line</name><visibility>0</visibility><styleUrl>#LS1</styleUrl><LineString><extrude>0</extrude><tessellate>0</tessellate><altitudeMode>relativeToGround</altitudeMode><coordinates>19.251084725108,-34.410043641004,1 19.250113625011,-34.408150040815,1 19.250215325022,-34.407109640711,1 </coordinates></LineString></Placemark><Placemark><name>Hole 6 Center Line</name><visibility>0</visibility><styleUrl>#LS1</styleUrl><LineString><extrude>0</extrude><tessellate>0</tessellate><altitudeMode>relativeToGround</altitudeMode><coordinates>19.249452124945,-34.407539840754,1 19.247943724794,-34.406966540697,1 </coordinates></LineString></Placemark><Placemark><name>Hole 7 Center Line</name><visibility>0</visibility><styleUrl>#LS1</styleUrl><LineString><extrude>0</extrude><tessellate>0</tessellate><altitudeMode>relativeToGround</altitudeMode><coordinates>19.24870062487,-34.407716240772,1 19.246192324619,-34.407178040718,1 19.245327424533,-34.406524640652,1 </coordinates></LineString></Placemark><Placemark><name>Hole 8 Center Line</name><visibility>0</visibility><styleUrl>#LS1</styleUrl><LineString><extrude>0</extrude><tessellate>0</tessellate><altitudeMode>relativeToGround</altitudeMode><coordinates>19.245558724556,-34.407591140759,1 19.248040024804,-34.408208540821,1 19.248965224897,-34.408313840831,1 </coordinates></LineString></Placemark><Placemark><name>Hole 9 Center Line</name><visibility>0</visibility><styleUrl>#LS1</styleUrl><LineString><extrude>0</extrude><tessellate>0</tessellate><altitudeMode>relativeToGround</altitudeMode><coordinates>19.248306424831,-34.409277740928,1 19.250894825089,-34.410427941043,1 19.253287025329,-34.410453141045,1 19.253858525386,-34.410486441049,1 </coordinates></LineString></Placemark></Folder><Placemark><name>Show Profile Line</name><visibility>0</visibility><styleUrl>#LS1</styleUrl><LineString><extrude>0</extrude><tessellate>0</tessellate><altitudeMode>relativeToGround</altitudeMode><coordinates>19.254181625418,-34.409436140944,1 19.255692725569,-34.40740304074,1 19.256846525685,-34.406248340625,1 19.257508025751,-34.405622840562,1 19.254754025475,-34.4059981406,1 19.253709125371,-34.406146640615,1 19.252992725299,-34.406411240641,1 19.252275425228,-34.405270940527,1 19.251708425171,-34.405387040539,1 19.251453725145,-34.407763040776,1 19.25129802513,-34.409278640928,1 19.251354725135,-34.409764640976,1 19.251084725108,-34.410043641004,1 19.250113625011,-34.408150040815,1 19.250215325022,-34.407109640711,1 19.249452124945,-34.407539840754,1 19.247943724794,-34.406966540697,1 19.24870062487,-34.407716240772,1 19.246192324619,-34.407178040718,1 19.245327424533,-34.406524640652,1 19.245558724556,-34.407591140759,1 19.248040024804,-34.408208540821,1 19.248965224897,-34.408313840831,1 19.248306424831,-34.409277740928,1 19.250894825089,-34.410427941043,1 19.253287025329,-34.410453141045,1 19.253858525386,-34.410486441049,1 </coordinates></LineString></Placemark><gx:Tour><name>Complete Tour</name><gx:Playlist><gx:FlyTo><gx:duration>10</gx:duration><gx:flyToMode>bounce</gx:flyToMode><LookAt><latitude>-34.40840024084</latitude><longitude>19.251417725142</longitude><altitude>0</altitude><altitudeMode>relativeToGround</altitudeMode><heading>0</heading><tilt>65</tilt><range>2000</range></LookAt></gx:FlyTo><gx:Wait><gx:duration>1</gx:duration></gx:Wait><gx:FlyTo><gx:duration>5</gx:duration><gx:flyToMode>smooth</gx:flyToMode><LookAt><latitude>-34.409436140944</latitude><longitude>19.254181625418</longitude><altitude>22</altitude><altitudeMode>relativeToGround</altitudeMode><heading>31.516451007129</heading><tilt>70</tilt><range>90</range></LookAt></gx:FlyTo><gx:Wait><gx:duration>1</gx:duration></gx:Wait><gx:FlyTo><gx:duration>4</gx:duration><gx:flyToMode>smooth</gx:flyToMode><LookAt><latitude>-34.409436140944</latitude><longitude>19.254181625418</longitude><altitude>14</altitude><altitudeMode>relativeToGround</altitudeMode><heading>31.516451007129</heading><tilt>74</tilt><range>60</range></LookAt></gx:FlyTo><gx:Wait><gx:duration>2</gx:duration></gx:Wait><gx:FlyTo><gx:duration>4</gx:duration><gx:flyToMode>smooth</gx:flyToMode><LookAt><latitude>-34.40740304074</latitude><longitude>19.255692725569</longitude><altitude>11</altitude><altitudeMode>relativeToGround</altitudeMode><heading>39.502082672461</heading><tilt>75</tilt><range>45</range></LookAt></gx:FlyTo><gx:Wait><gx:duration>2</gx:duration></gx:Wait><gx:FlyTo><gx:duration>4</gx:duration><gx:flyToMode>smooth</gx:flyToMode><LookAt><latitude>-34.406248340625</latitude><longitude>19.256846525685</longitude><altitude>0</altitude><altitudeMode>relativeToGround</altitudeMode><heading>39.502082672461</heading><tilt>75</tilt><range>70</range></LookAt></gx:FlyTo><gx:Wait><gx:duration>2</gx:duration></gx:Wait><gx:FlyTo><gx:duration>5</gx:duration><gx:flyToMode>smooth</gx:flyToMode><LookAt><latitude>-34.405622840562</latitude><longitude>19.257508025751</longitude><altitude>22</altitude><altitudeMode>relativeToGround</altitudeMode><heading>-99.378844773789</heading><tilt>70</tilt><range>90</range></LookAt></gx:FlyTo><gx:Wait><gx:duration>1</gx:duration></gx:Wait><gx:FlyTo><gx:duration>4</gx:duration><gx:flyToMode>smooth</gx:flyToMode><LookAt><latitude>-34.405622840562</latitude><longitude>19.257508025751</longitude><altitude>14</altitude><altitudeMode>relativeToGround</altitudeMode><heading>-99.378844773789</heading><tilt>74</tilt><range>60</range></LookAt></gx:FlyTo><gx:Wait><gx:duration>2</gx:duration></gx:Wait><gx:FlyTo><gx:duration>4</gx:duration><gx:flyToMode>smooth</gx:flyToMode><LookAt><latitude>-34.4059981406</latitude><longitude>19.254754025475</longitude><altitude>10.700013300029</altitude><altitudeMode>relativeToGround</altitudeMode><heading>-99.773512338061</heading><tilt>75</tilt><range>45.68178795448</range></LookAt></gx:FlyTo><gx:Wait><gx:duration>2</gx:duration></gx:Wait><gx:FlyTo><gx:duration>4</gx:duration><gx:flyToMode>smooth</gx:flyToMode><LookAt><latitude>-34.406146640615</latitude><longitude>19.253709125371</longitude><altitude>0</altitude><altitudeMode>relativeToGround</altitudeMode><heading>-99.773512338061</heading><tilt>75</tilt><range>70</range></LookAt></gx:FlyTo><gx:Wait><gx:duration>2</gx:duration></gx:Wait><gx:FlyTo><gx:duration>5</gx:duration><gx:flyToMode>smooth</gx:flyToMode><LookAt><latitude>-34.406411240641</latitude><longitude>19.252992725299</longitude><altitude>22</altitude><altitudeMode>relativeToGround</altitudeMode><heading>-27.429030040995</heading><tilt>70</tilt><range>90</range></LookAt></gx:FlyTo><gx:Wait><gx:duration>1</gx:duration></gx:Wait><gx:FlyTo><gx:duration>4</gx:duration><gx:flyToMode>smooth</gx:flyToMode><LookAt><latitude>-34.406411240641</latitude><longitude>19.252992725299</longitude><altitude>14</altitude><altitudeMode>relativeToGround</altitudeMode><heading>-27.429030040995</heading><tilt>74</tilt><range>60</range></LookAt></gx:FlyTo><gx:Wait><gx:duration>2</gx:duration></gx:Wait><gx:FlyTo><gx:duration>4</gx:duration><gx:flyToMode>smooth</gx:flyToMode><LookAt><latitude>-34.405270940527</latitude><longitude>19.252275425228</longitude><altitude>0</altitude><altitudeMode>relativeToGround</altitudeMode><heading>-27.429030040995</heading><tilt>75</tilt><range>70</range></LookAt></gx:FlyTo><gx:Wait><gx:duration>2</gx:duration></gx:Wait><gx:FlyTo><gx:duration>5</gx:duration><gx:flyToMode>smooth</gx:flyToMode><LookAt><latitude>-34.405387040539</latitude><longitude>19.251708425171</longitude><altitude>22</altitude><altitudeMode>relativeToGround</altitudeMode><heading>-174.94568514836</heading><tilt>70</tilt><range>90</range></LookAt></gx:FlyTo><gx:Wait><gx:duration>1</gx:duration></gx:Wait><gx:FlyTo><gx:duration>4</gx:duration><gx:flyToMode>smooth</gx:flyToMode><LookAt><latitude>-34.405387040539</latitude><longitude>19.251708425171</longitude><altitude>14</altitude><altitudeMode>relativeToGround</altitudeMode><heading>-174.94568514836</heading><tilt>74</tilt><range>60</range></LookAt></gx:FlyTo><gx:Wait><gx:duration>2</gx:duration></gx:Wait><gx:FlyTo><gx:duration>4</gx:duration><gx:flyToMode>smooth</gx:flyToMode><LookAt><latitude>-34.407763040776</latitude><longitude>19.251453725145</longitude><altitude>11</altitude><altitudeMode>relativeToGround</altitudeMode><heading>-175.15533999309</heading><tilt>75</tilt><range>45</range></LookAt></gx:FlyTo><gx:Wait><gx:duration>2</gx:duration></gx:Wait><gx:FlyTo><gx:duration>4</gx:duration><gx:flyToMode>smooth</gx:flyToMode><LookAt><latitude>-34.409278640928</latitude><longitude>19.25129802513</longitude><altitude>5.9719543798817</altitude><altitudeMode>relativeToGround</altitudeMode><heading>174.5020710761</heading><tilt>75</tilt><range>56.42737640936</range></LookAt></gx:FlyTo><gx:Wait><gx:duration>2</gx:duration></gx:Wait><gx:FlyTo><gx:duration>4</gx:duration><gx:flyToMode>smooth</gx:flyToMode><LookAt><latitude>-34.409764640976</latitude><longitude>19.251354725135</longitude><altitude>0</altitude><altitudeMode>relativeToGround</altitudeMode><heading>174.5020710761</heading><tilt>75</tilt><range>70</range></LookAt></gx:FlyTo><gx:Wait><gx:duration>2</gx:duration></gx:Wait><gx:FlyTo><gx:duration>5</gx:duration><gx:flyToMode>smooth</gx:flyToMode><LookAt><latitude>-34.410043641004</latitude><longitude>19.251084725108</longitude><altitude>22</altitude><altitudeMode>relativeToGround</altitudeMode><heading>-22.932949157985</heading><tilt>70</tilt><range>90</range></LookAt></gx:FlyTo><gx:Wait><gx:duration>1</gx:duration></gx:Wait><gx:FlyTo><gx:duration>4</gx:duration><gx:flyToMode>smooth</gx:flyToMode><LookAt><latitude>-34.410043641004</latitude><longitude>19.251084725108</longitude><altitude>14</altitude><altitudeMode>relativeToGround</altitudeMode><heading>-22.932949157985</heading><tilt>74</tilt><range>60</range></LookAt></gx:FlyTo><gx:Wait><gx:duration>2</gx:duration></gx:Wait><gx:FlyTo><gx:duration>4</gx:duration><gx:flyToMode>smooth</gx:flyToMode><LookAt><latitude>-34.408150040815</latitude><longitude>19.250113625011</longitude><altitude>11</altitude><altitudeMode>relativeToGround</altitudeMode><heading>4.6107939373257</heading><tilt>75</tilt><range>45</range></LookAt></gx:FlyTo><gx:Wait><gx:duration>2</gx:duration></gx:Wait><gx:FlyTo><gx:duration>4</gx:duration><gx:flyToMode>smooth</gx:flyToMode><LookAt><latitude>-34.407109640711</latitude><longitude>19.250215325022</longitude><altitude>0</altitude><altitudeMode>relativeToGround</altitudeMode><heading>4.6107939373257</heading><tilt>75</tilt><range>70</range></LookAt></gx:FlyTo><gx:Wait><gx:duration>2</gx:duration></gx:Wait><gx:FlyTo><gx:duration>5</gx:duration><gx:flyToMode>smooth</gx:flyToMode><LookAt><latitude>-34.407539840754</latitude><longitude>19.249452124945</longitude><altitude>22</altitude><altitudeMode>relativeToGround</altitudeMode><heading>-65.26584719328</heading><tilt>70</tilt><range>90</range></LookAt></gx:FlyTo><gx:Wait><gx:duration>1</gx:duration></gx:Wait><gx:FlyTo><gx:duration>4</gx:duration><gx:flyToMode>smooth</gx:flyToMode><LookAt><latitude>-34.407539840754</latitude><longitude>19.249452124945</longitude><altitude>14</altitude><altitudeMode>relativeToGround</altitudeMode><heading>-65.26584719328</heading><tilt>74</tilt><range>60</range></LookAt></gx:FlyTo><gx:Wait><gx:duration>2</gx:duration></gx:Wait><gx:FlyTo><gx:duration>4</gx:duration><gx:flyToMode>smooth</gx:flyToMode><LookAt><latitude>-34.406966540697</latitude><longitude>19.247943724794</longitude><altitude>0</altitude><altitudeMode>relativeToGround</altitudeMode><heading>-65.26584719328</heading><tilt>75</tilt><range>70</range></LookAt></gx:FlyTo><gx:Wait><gx:duration>2</gx:duration></gx:Wait><gx:FlyTo><gx:duration>5</gx:duration><gx:flyToMode>smooth</gx:flyToMode><LookAt><latitude>-34.407716240772</latitude><longitude>19.24870062487</longitude><altitude>22</altitude><altitudeMode>relativeToGround</altitudeMode><heading>-75.422016863064</heading><tilt>70</tilt><range>90</range></LookAt></gx:FlyTo><gx:Wait><gx:duration>1</gx:duration></gx:Wait><gx:FlyTo><gx:duration>4</gx:duration><gx:flyToMode>smooth</gx:flyToMode><LookAt><latitude>-34.407716240772</latitude><longitude>19.24870062487</longitude><altitude>14</altitude><altitudeMode>relativeToGround</altitudeMode><heading>-75.422016863064</heading><tilt>74</tilt><range>60</range></LookAt></gx:FlyTo><gx:Wait><gx:duration>2</gx:duration></gx:Wait><gx:FlyTo><gx:duration>4</gx:duration><gx:flyToMode>smooth</gx:flyToMode><LookAt><latitude>-34.407178040718</latitude><longitude>19.246192324619</longitude><altitude>11</altitude><altitudeMode>relativeToGround</altitudeMode><heading>-47.520742449301</heading><tilt>75</tilt><range>45</range></LookAt></gx:FlyTo><gx:Wait><gx:duration>2</gx:duration></gx:Wait><gx:FlyTo><gx:duration>4</gx:duration><gx:flyToMode>smooth</gx:flyToMode><LookAt><latitude>-34.406524640652</latitude><longitude>19.245327424533</longitude><altitude>0</altitude><altitudeMode>relativeToGround</altitudeMode><heading>-47.520742449301</heading><tilt>75</tilt><range>70</range></LookAt></gx:FlyTo><gx:Wait><gx:duration>2</gx:duration></gx:Wait><gx:FlyTo><gx:duration>5</gx:duration><gx:flyToMode>smooth</gx:flyToMode><LookAt><latitude>-34.407591140759</latitude><longitude>19.245558724556</longitude><altitude>22</altitude><altitudeMode>relativeToGround</altitudeMode><heading>106.7826445147</heading><tilt>70</tilt><range>90</range></LookAt></gx:FlyTo><gx:Wait><gx:duration>1</gx:duration></gx:Wait><gx:FlyTo><gx:duration>4</gx:duration><gx:flyToMode>smooth</gx:flyToMode><LookAt><latitude>-34.407591140759</latitude><longitude>19.245558724556</longitude><altitude>14</altitude><altitudeMode>relativeToGround</altitudeMode><heading>106.7826445147</heading><tilt>74</tilt><range>60</range></LookAt></gx:FlyTo><gx:Wait><gx:duration>2</gx:duration></gx:Wait><gx:FlyTo><gx:duration>4</gx:duration><gx:flyToMode>smooth</gx:flyToMode><LookAt><latitude>-34.408208540821</latitude><longitude>19.248040024804</longitude><altitude>9.4249257023807</altitude><altitudeMode>relativeToGround</altitudeMode><heading>97.854378934507</heading><tilt>75</tilt><range>48.579714312771</range></LookAt></gx:FlyTo><gx:Wait><gx:duration>2</gx:duration></gx:Wait><gx:FlyTo><gx:duration>4</gx:duration><gx:flyToMode>smooth</gx:flyToMode><LookAt><latitude>-34.408313840831</latitude><longitude>19.248965224897</longitude><altitude>0</altitude><altitudeMode>relativeToGround</altitudeMode><heading>97.854378934507</heading><tilt>75</tilt><range>70</range></LookAt></gx:FlyTo><gx:Wait><gx:duration>2</gx:duration></gx:Wait><gx:FlyTo><gx:duration>5</gx:duration><gx:flyToMode>smooth</gx:flyToMode><LookAt><latitude>-34.409277740928</latitude><longitude>19.248306424831</longitude><altitude>22</altitude><altitudeMode>relativeToGround</altitudeMode><heading>118.30746133187</heading><tilt>70</tilt><range>90</range></LookAt></gx:FlyTo><gx:Wait><gx:duration>1</gx:duration></gx:Wait><gx:FlyTo><gx:duration>4</gx:duration><gx:flyToMode>smooth</gx:flyToMode><LookAt><latitude>-34.409277740928</latitude><longitude>19.248306424831</longitude><altitude>14</altitude><altitudeMode>relativeToGround</altitudeMode><heading>118.30746133187</heading><tilt>74</tilt><range>60</range></LookAt></gx:FlyTo><gx:Wait><gx:duration>2</gx:duration></gx:Wait><gx:FlyTo><gx:duration>4</gx:duration><gx:flyToMode>smooth</gx:flyToMode><LookAt><latitude>-34.410427941043</latitude><longitude>19.250894825089</longitude><altitude>11</altitude><altitudeMode>relativeToGround</altitudeMode><heading>90.731547493838</heading><tilt>75</tilt><range>45</range></LookAt></gx:FlyTo><gx:Wait><gx:duration>2</gx:duration></gx:Wait><gx:FlyTo><gx:duration>4</gx:duration><gx:flyToMode>smooth</gx:flyToMode><LookAt><latitude>-34.410453141045</latitude><longitude>19.253287025329</longitude><altitude>5.7814108030623</altitude><altitudeMode>relativeToGround</altitudeMode><heading>94.039900356974</heading><tilt>75</tilt><range>56.86042999304</range></LookAt></gx:FlyTo><gx:Wait><gx:duration>2</gx:duration></gx:Wait><gx:FlyTo><gx:duration>4</gx:duration><gx:flyToMode>smooth</gx:flyToMode><LookAt><latitude>-34.410486441049</latitude><longitude>19.253858525386</longitude><altitude>0</altitude><altitudeMode>relativeToGround</altitudeMode><heading>94.039900356974</heading><tilt>75</tilt><range>70</range></LookAt></gx:FlyTo><gx:Wait><gx:duration>2</gx:duration></gx:Wait><gx:Wait><gx:duration>2</gx:duration></gx:Wait><gx:FlyTo><gx:duration>5</gx:duration><gx:flyToMode>bounce</gx:flyToMode><LookAt><latitude>-34.40840024084</latitude><longitude>19.251417725142</longitude><altitude>0</altitude><altitudeMode>relativeToGround</altitudeMode><heading>0</heading><tilt>65</tilt><range>2000</range></LookAt></gx:FlyTo><gx:Wait><gx:duration>5</gx:duration></gx:Wait></gx:Playlist></gx:Tour><gx:Tour><name>Hole 1 - Par 4 - 472 yards</name><gx:Playlist><gx:FlyTo><gx:duration>5</gx:duration><gx:flyToMode>smooth</gx:flyToMode><LookAt><latitude>-34.409436140944</latitude><longitude>19.254181625418</longitude><altitude>22</altitude><altitudeMode>relativeToGround</altitudeMode><heading>31.516451007129</heading><tilt>70</tilt><range>90</range></LookAt></gx:FlyTo><gx:Wait><gx:duration>1</gx:duration></gx:Wait><gx:FlyTo><gx:duration>4</gx:duration><gx:flyToMode>smooth</gx:flyToMode><LookAt><latitude>-34.409436140944</latitude><longitude>19.254181625418</longitude><altitude>14</altitude><altitudeMode>relativeToGround</altitudeMode><heading>31.516451007129</heading><tilt>74</tilt><range>60</range></LookAt></gx:FlyTo><gx:Wait><gx:duration>2</gx:duration></gx:Wait><gx:FlyTo><gx:duration>4</gx:duration><gx:flyToMode>smooth</gx:flyToMode><LookAt><latitude>-34.40740304074</latitude><longitude>19.255692725569</longitude><altitude>11</altitude><altitudeMode>relativeToGround</altitudeMode><heading>39.502082672461</heading><tilt>75</tilt><range>45</range></LookAt></gx:FlyTo><gx:Wait><gx:duration>2</gx:duration></gx:Wait><gx:FlyTo><gx:duration>4</gx:duration><gx:flyToMode>smooth</gx:flyToMode><LookAt><latitude>-34.406248340625</latitude><longitude>19.256846525685</longitude><altitude>0</altitude><altitudeMode>relativeToGround</altitudeMode><heading>39.502082672461</heading><tilt>75</tilt><range>70</range></LookAt></gx:FlyTo><gx:Wait><gx:duration>2</gx:duration></gx:Wait><gx:FlyTo><gx:duration>5</gx:duration><gx:flyToMode>smooth</gx:flyToMode><LookAt><latitude>-34.406248340625</latitude><longitude>19.256846525685</longitude><altitude>0</altitude><altitudeMode>relativeToGround</altitudeMode><heading>309.50208267246</heading><tilt>75</tilt><range>60</range></LookAt></gx:FlyTo><gx:Wait><gx:duration>2</gx:duration></gx:Wait><gx:FlyTo><gx:duration>5</gx:duration><gx:flyToMode>smooth</gx:flyToMode><LookAt><latitude>-34.406248340625</latitude><longitude>19.256846525685</longitude><altitude>0</altitude><altitudeMode>relativeToGround</altitudeMode><heading>219.50208267246</heading><tilt>75</tilt><range>60</range></LookAt></gx:FlyTo><gx:Wait><gx:duration>2</gx:duration></gx:Wait><gx:FlyTo><gx:duration>5</gx:duration><gx:flyToMode>smooth</gx:flyToMode><LookAt><latitude>-34.406248340625</latitude><longitude>19.256846525685</longitude><altitude>0</altitude><altitudeMode>relativeToGround</altitudeMode><heading>129.50208267246</heading><tilt>75</tilt><range>60</range></LookAt></gx:FlyTo><gx:Wait><gx:duration>2</gx:duration></gx:Wait><gx:FlyTo><gx:duration>5</gx:duration><gx:flyToMode>smooth</gx:flyToMode><LookAt><latitude>-34.409436140944</latitude><longitude>19.254181625418</longitude><altitude>22</altitude><altitudeMode>relativeToGround</altitudeMode><heading>31.516451007129</heading><tilt>70</tilt><range>90</range></LookAt></gx:FlyTo><gx:Wait><gx:duration>5</gx:duration></gx:Wait></gx:Playlist></gx:Tour><gx:Tour><name>Hole 2 - Par 4 - 386 yards</name><gx:Playlist><gx:FlyTo><gx:duration>5</gx:duration><gx:flyToMode>smooth</gx:flyToMode><LookAt><latitude>-34.405622840562</latitude><longitude>19.257508025751</longitude><altitude>22</altitude><altitudeMode>relativeToGround</altitudeMode><heading>-99.378844773789</heading><tilt>70</tilt><range>90</range></LookAt></gx:FlyTo><gx:Wait><gx:duration>1</gx:duration></gx:Wait><gx:FlyTo><gx:duration>4</gx:duration><gx:flyToMode>smooth</gx:flyToMode><LookAt><latitude>-34.405622840562</latitude><longitude>19.257508025751</longitude><altitude>14</altitude><altitudeMode>relativeToGround</altitudeMode><heading>-99.378844773789</heading><tilt>74</tilt><range>60</range></LookAt></gx:FlyTo><gx:Wait><gx:duration>2</gx:duration></gx:Wait><gx:FlyTo><gx:duration>4</gx:duration><gx:flyToMode>smooth</gx:flyToMode><LookAt><latitude>-34.4059981406</latitude><longitude>19.254754025475</longitude><altitude>10.700013300029</altitude><altitudeMode>relativeToGround</altitudeMode><heading>-99.773512338061</heading><tilt>75</tilt><range>45.68178795448</range></LookAt></gx:FlyTo><gx:Wait><gx:duration>2</gx:duration></gx:Wait><gx:FlyTo><gx:duration>4</gx:duration><gx:flyToMode>smooth</gx:flyToMode><LookAt><latitude>-34.406146640615</latitude><longitude>19.253709125371</longitude><altitude>0</altitude><altitudeMode>relativeToGround</altitudeMode><heading>-99.773512338061</heading><tilt>75</tilt><range>70</range></LookAt></gx:FlyTo><gx:Wait><gx:duration>2</gx:duration></gx:Wait><gx:FlyTo><gx:duration>5</gx:duration><gx:flyToMode>smooth</gx:flyToMode><LookAt><latitude>-34.406146640615</latitude><longitude>19.253709125371</longitude><altitude>0</altitude><altitudeMode>relativeToGround</altitudeMode><heading>170.22648766194</heading><tilt>75</tilt><range>60</range></LookAt></gx:FlyTo><gx:Wait><gx:duration>2</gx:duration></gx:Wait><gx:FlyTo><gx:duration>5</gx:duration><gx:flyToMode>smooth</gx:flyToMode><LookAt><latitude>-34.406146640615</latitude><longitude>19.253709125371</longitude><altitude>0</altitude><altitudeMode>relativeToGround</altitudeMode><heading>80.226487661939</heading><tilt>75</tilt><range>60</range></LookAt></gx:FlyTo><gx:Wait><gx:duration>2</gx:duration></gx:Wait><gx:FlyTo><gx:duration>5</gx:duration><gx:flyToMode>smooth</gx:flyToMode><LookAt><latitude>-34.406146640615</latitude><longitude>19.253709125371</longitude><altitude>0</altitude><altitudeMode>relativeToGround</altitudeMode><heading>350.22648766194</heading><tilt>75</tilt><range>60</range></LookAt></gx:FlyTo><gx:Wait><gx:duration>2</gx:duration></gx:Wait><gx:FlyTo><gx:duration>5</gx:duration><gx:flyToMode>smooth</gx:flyToMode><LookAt><latitude>-34.405622840562</latitude><longitude>19.257508025751</longitude><altitude>22</altitude><altitudeMode>relativeToGround</altitudeMode><heading>-99.378844773789</heading><tilt>70</tilt><range>90</range></LookAt></gx:FlyTo><gx:Wait><gx:duration>5</gx:duration></gx:Wait></gx:Playlist></gx:Tour><gx:Tour><name>Hole 3 - Par 3 - 156 yards</name><gx:Playlist><gx:FlyTo><gx:duration>5</gx:duration><gx:flyToMode>smooth</gx:flyToMode><LookAt><latitude>-34.406411240641</latitude><longitude>19.252992725299</longitude><altitude>22</altitude><altitudeMode>relativeToGround</altitudeMode><heading>-27.429030040995</heading><tilt>70</tilt><range>90</range></LookAt></gx:FlyTo><gx:Wait><gx:duration>1</gx:duration></gx:Wait><gx:FlyTo><gx:duration>4</gx:duration><gx:flyToMode>smooth</gx:flyToMode><LookAt><latitude>-34.406411240641</latitude><longitude>19.252992725299</longitude><altitude>14</altitude><altitudeMode>relativeToGround</altitudeMode><heading>-27.429030040995</heading><tilt>74</tilt><range>60</range></LookAt></gx:FlyTo><gx:Wait><gx:duration>2</gx:duration></gx:Wait><gx:FlyTo><gx:duration>4</gx:duration><gx:flyToMode>smooth</gx:flyToMode><LookAt><latitude>-34.405270940527</latitude><longitude>19.252275425228</longitude><altitude>0</altitude><altitudeMode>relativeToGround</altitudeMode><heading>-27.429030040995</heading><tilt>75</tilt><range>70</range></LookAt></gx:FlyTo><gx:Wait><gx:duration>2</gx:duration></gx:Wait><gx:FlyTo><gx:duration>5</gx:duration><gx:flyToMode>smooth</gx:flyToMode><LookAt><latitude>-34.405270940527</latitude><longitude>19.252275425228</longitude><altitude>0</altitude><altitudeMode>relativeToGround</altitudeMode><heading>242.57096995901</heading><tilt>75</tilt><range>60</range></LookAt></gx:FlyTo><gx:Wait><gx:duration>2</gx:duration></gx:Wait><gx:FlyTo><gx:duration>5</gx:duration><gx:flyToMode>smooth</gx:flyToMode><LookAt><latitude>-34.405270940527</latitude><longitude>19.252275425228</longitude><altitude>0</altitude><altitudeMode>relativeToGround</altitudeMode><heading>152.57096995901</heading><tilt>75</tilt><range>60</range></LookAt></gx:FlyTo><gx:Wait><gx:duration>2</gx:duration></gx:Wait><gx:FlyTo><gx:duration>5</gx:duration><gx:flyToMode>smooth</gx:flyToMode><LookAt><latitude>-34.405270940527</latitude><longitude>19.252275425228</longitude><altitude>0</altitude><altitudeMode>relativeToGround</altitudeMode><heading>62.570969959005</heading><tilt>75</tilt><range>60</range></LookAt></gx:FlyTo><gx:Wait><gx:duration>2</gx:duration></gx:Wait><gx:FlyTo><gx:duration>5</gx:duration><gx:flyToMode>smooth</gx:flyToMode><LookAt><latitude>-34.406411240641</latitude><longitude>19.252992725299</longitude><altitude>22</altitude><altitudeMode>relativeToGround</altitudeMode><heading>-27.429030040995</heading><tilt>70</tilt><range>90</range></LookAt></gx:FlyTo><gx:Wait><gx:duration>5</gx:duration></gx:Wait></gx:Playlist></gx:Tour><gx:Tour><name>Hole 4 - Par 5 - 534 yards</name><gx:Playlist><gx:FlyTo><gx:duration>5</gx:duration><gx:flyToMode>smooth</gx:flyToMode><LookAt><latitude>-34.405387040539</latitude><longitude>19.251708425171</longitude><altitude>22</altitude><altitudeMode>relativeToGround</altitudeMode><heading>-174.94568514836</heading><tilt>70</tilt><range>90</range></LookAt></gx:FlyTo><gx:Wait><gx:duration>1</gx:duration></gx:Wait><gx:FlyTo><gx:duration>4</gx:duration><gx:flyToMode>smooth</gx:flyToMode><LookAt><latitude>-34.405387040539</latitude><longitude>19.251708425171</longitude><altitude>14</altitude><altitudeMode>relativeToGround</altitudeMode><heading>-174.94568514836</heading><tilt>74</tilt><range>60</range></LookAt></gx:FlyTo><gx:Wait><gx:duration>2</gx:duration></gx:Wait><gx:FlyTo><gx:duration>4</gx:duration><gx:flyToMode>smooth</gx:flyToMode><LookAt><latitude>-34.407763040776</latitude><longitude>19.251453725145</longitude><altitude>11</altitude><altitudeMode>relativeToGround</altitudeMode><heading>-175.15533999309</heading><tilt>75</tilt><range>45</range></LookAt></gx:FlyTo><gx:Wait><gx:duration>2</gx:duration></gx:Wait><gx:FlyTo><gx:duration>4</gx:duration><gx:flyToMode>smooth</gx:flyToMode><LookAt><latitude>-34.409278640928</latitude><longitude>19.25129802513</longitude><altitude>5.9719543798817</altitude><altitudeMode>relativeToGround</altitudeMode><heading>174.5020710761</heading><tilt>75</tilt><range>56.42737640936</range></LookAt></gx:FlyTo><gx:Wait><gx:duration>2</gx:duration></gx:Wait><gx:FlyTo><gx:duration>4</gx:duration><gx:flyToMode>smooth</gx:flyToMode><LookAt><latitude>-34.409764640976</latitude><longitude>19.251354725135</longitude><altitude>0</altitude><altitudeMode>relativeToGround</altitudeMode><heading>174.5020710761</heading><tilt>75</tilt><range>70</range></LookAt></gx:FlyTo><gx:Wait><gx:duration>2</gx:duration></gx:Wait><gx:FlyTo><gx:duration>5</gx:duration><gx:flyToMode>smooth</gx:flyToMode><LookAt><latitude>-34.409764640976</latitude><longitude>19.251354725135</longitude><altitude>0</altitude><altitudeMode>relativeToGround</altitudeMode><heading>84.502071076104</heading><tilt>75</tilt><range>60</range></LookAt></gx:FlyTo><gx:Wait><gx:duration>2</gx:duration></gx:Wait><gx:FlyTo><gx:duration>5</gx:duration><gx:flyToMode>smooth</gx:flyToMode><LookAt><latitude>-34.409764640976</latitude><longitude>19.251354725135</longitude><altitude>0</altitude><altitudeMode>relativeToGround</altitudeMode><heading>354.5020710761</heading><tilt>75</tilt><range>60</range></LookAt></gx:FlyTo><gx:Wait><gx:duration>2</gx:duration></gx:Wait><gx:FlyTo><gx:duration>5</gx:duration><gx:flyToMode>smooth</gx:flyToMode><LookAt><latitude>-34.409764640976</latitude><longitude>19.251354725135</longitude><altitude>0</altitude><altitudeMode>relativeToGround</altitudeMode><heading>264.5020710761</heading><tilt>75</tilt><range>60</range></LookAt></gx:FlyTo><gx:Wait><gx:duration>2</gx:duration></gx:Wait><gx:FlyTo><gx:duration>5</gx:duration><gx:flyToMode>smooth</gx:flyToMode><LookAt><latitude>-34.405387040539</latitude><longitude>19.251708425171</longitude><altitude>22</altitude><altitudeMode>relativeToGround</altitudeMode><heading>-174.94568514836</heading><tilt>70</tilt><range>90</range></LookAt></gx:FlyTo><gx:Wait><gx:duration>5</gx:duration></gx:Wait></gx:Playlist></gx:Tour><gx:Tour><name>Hole 5 - Par 4 - 377 yards</name><gx:Playlist><gx:FlyTo><gx:duration>5</gx:duration><gx:flyToMode>smooth</gx:flyToMode><LookAt><latitude>-34.410043641004</latitude><longitude>19.251084725108</longitude><altitude>22</altitude><altitudeMode>relativeToGround</altitudeMode><heading>-22.932949157985</heading><tilt>70</tilt><range>90</range></LookAt></gx:FlyTo><gx:Wait><gx:duration>1</gx:duration></gx:Wait><gx:FlyTo><gx:duration>4</gx:duration><gx:flyToMode>smooth</gx:flyToMode><LookAt><latitude>-34.410043641004</latitude><longitude>19.251084725108</longitude><altitude>14</altitude><altitudeMode>relativeToGround</altitudeMode><heading>-22.932949157985</heading><tilt>74</tilt><range>60</range></LookAt></gx:FlyTo><gx:Wait><gx:duration>2</gx:duration></gx:Wait><gx:FlyTo><gx:duration>4</gx:duration><gx:flyToMode>smooth</gx:flyToMode><LookAt><latitude>-34.408150040815</latitude><longitude>19.250113625011</longitude><altitude>11</altitude><altitudeMode>relativeToGround</altitudeMode><heading>4.6107939373257</heading><tilt>75</tilt><range>45</range></LookAt></gx:FlyTo><gx:Wait><gx:duration>2</gx:duration></gx:Wait><gx:FlyTo><gx:duration>4</gx:duration><gx:flyToMode>smooth</gx:flyToMode><LookAt><latitude>-34.407109640711</latitude><longitude>19.250215325022</longitude><altitude>0</altitude><altitudeMode>relativeToGround</altitudeMode><heading>4.6107939373257</heading><tilt>75</tilt><range>70</range></LookAt></gx:FlyTo><gx:Wait><gx:duration>2</gx:duration></gx:Wait><gx:FlyTo><gx:duration>5</gx:duration><gx:flyToMode>smooth</gx:flyToMode><LookAt><latitude>-34.407109640711</latitude><longitude>19.250215325022</longitude><altitude>0</altitude><altitudeMode>relativeToGround</altitudeMode><heading>274.61079393733</heading><tilt>75</tilt><range>60</range></LookAt></gx:FlyTo><gx:Wait><gx:duration>2</gx:duration></gx:Wait><gx:FlyTo><gx:duration>5</gx:duration><gx:flyToMode>smooth</gx:flyToMode><LookAt><latitude>-34.407109640711</latitude><longitude>19.250215325022</longitude><altitude>0</altitude><altitudeMode>relativeToGround</altitudeMode><heading>184.61079393733</heading><tilt>75</tilt><range>60</range></LookAt></gx:FlyTo><gx:Wait><gx:duration>2</gx:duration></gx:Wait><gx:FlyTo><gx:duration>5</gx:duration><gx:flyToMode>smooth</gx:flyToMode><LookAt><latitude>-34.407109640711</latitude><longitude>19.250215325022</longitude><altitude>0</altitude><altitudeMode>relativeToGround</altitudeMode><heading>94.610793937326</heading><tilt>75</tilt><range>60</range></LookAt></gx:FlyTo><gx:Wait><gx:duration>2</gx:duration></gx:Wait><gx:FlyTo><gx:duration>5</gx:duration><gx:flyToMode>smooth</gx:flyToMode><LookAt><latitude>-34.410043641004</latitude><longitude>19.251084725108</longitude><altitude>22</altitude><altitudeMode>relativeToGround</altitudeMode><heading>-22.932949157985</heading><tilt>70</tilt><range>90</range></LookAt></gx:FlyTo><gx:Wait><gx:duration>5</gx:duration></gx:Wait></gx:Playlist></gx:Tour><gx:Tour><name>Hole 6 - Par 3 - 167 yards</name><gx:Playlist><gx:FlyTo><gx:duration>5</gx:duration><gx:flyToMode>smooth</gx:flyToMode><LookAt><latitude>-34.407539840754</latitude><longitude>19.249452124945</longitude><altitude>22</altitude><altitudeMode>relativeToGround</altitudeMode><heading>-65.26584719328</heading><tilt>70</tilt><range>90</range></LookAt></gx:FlyTo><gx:Wait><gx:duration>1</gx:duration></gx:Wait><gx:FlyTo><gx:duration>4</gx:duration><gx:flyToMode>smooth</gx:flyToMode><LookAt><latitude>-34.407539840754</latitude><longitude>19.249452124945</longitude><altitude>14</altitude><altitudeMode>relativeToGround</altitudeMode><heading>-65.26584719328</heading><tilt>74</tilt><range>60</range></LookAt></gx:FlyTo><gx:Wait><gx:duration>2</gx:duration></gx:Wait><gx:FlyTo><gx:duration>4</gx:duration><gx:flyToMode>smooth</gx:flyToMode><LookAt><latitude>-34.406966540697</latitude><longitude>19.247943724794</longitude><altitude>0</altitude><altitudeMode>relativeToGround</altitudeMode><heading>-65.26584719328</heading><tilt>75</tilt><range>70</range></LookAt></gx:FlyTo><gx:Wait><gx:duration>2</gx:duration></gx:Wait><gx:FlyTo><gx:duration>5</gx:duration><gx:flyToMode>smooth</gx:flyToMode><LookAt><latitude>-34.406966540697</latitude><longitude>19.247943724794</longitude><altitude>0</altitude><altitudeMode>relativeToGround</altitudeMode><heading>204.73415280672</heading><tilt>75</tilt><range>60</range></LookAt></gx:FlyTo><gx:Wait><gx:duration>2</gx:duration></gx:Wait><gx:FlyTo><gx:duration>5</gx:duration><gx:flyToMode>smooth</gx:flyToMode><LookAt><latitude>-34.406966540697</latitude><longitude>19.247943724794</longitude><altitude>0</altitude><altitudeMode>relativeToGround</altitudeMode><heading>114.73415280672</heading><tilt>75</tilt><range>60</range></LookAt></gx:FlyTo><gx:Wait><gx:duration>2</gx:duration></gx:Wait><gx:FlyTo><gx:duration>5</gx:duration><gx:flyToMode>smooth</gx:flyToMode><LookAt><latitude>-34.406966540697</latitude><longitude>19.247943724794</longitude><altitude>0</altitude><altitudeMode>relativeToGround</altitudeMode><heading>24.73415280672</heading><tilt>75</tilt><range>60</range></LookAt></gx:FlyTo><gx:Wait><gx:duration>2</gx:duration></gx:Wait><gx:FlyTo><gx:duration>5</gx:duration><gx:flyToMode>smooth</gx:flyToMode><LookAt><latitude>-34.407539840754</latitude><longitude>19.249452124945</longitude><altitude>22</altitude><altitudeMode>relativeToGround</altitudeMode><heading>-65.26584719328</heading><tilt>70</tilt><range>90</range></LookAt></gx:FlyTo><gx:Wait><gx:duration>5</gx:duration></gx:Wait></gx:Playlist></gx:Tour><gx:Tour><name>Hole 7 - Par 4 - 378 yards</name><gx:Playlist><gx:FlyTo><gx:duration>5</gx:duration><gx:flyToMode>smooth</gx:flyToMode><LookAt><latitude>-34.407716240772</latitude><longitude>19.24870062487</longitude><altitude>22</altitude><altitudeMode>relativeToGround</altitudeMode><heading>-75.422016863064</heading><tilt>70</tilt><range>90</range></LookAt></gx:FlyTo><gx:Wait><gx:duration>1</gx:duration></gx:Wait><gx:FlyTo><gx:duration>4</gx:duration><gx:flyToMode>smooth</gx:flyToMode><LookAt><latitude>-34.407716240772</latitude><longitude>19.24870062487</longitude><altitude>14</altitude><altitudeMode>relativeToGround</altitudeMode><heading>-75.422016863064</heading><tilt>74</tilt><range>60</range></LookAt></gx:FlyTo><gx:Wait><gx:duration>2</gx:duration></gx:Wait><gx:FlyTo><gx:duration>4</gx:duration><gx:flyToMode>smooth</gx:flyToMode><LookAt><latitude>-34.407178040718</latitude><longitude>19.246192324619</longitude><altitude>11</altitude><altitudeMode>relativeToGround</altitudeMode><heading>-47.520742449301</heading><tilt>75</tilt><range>45</range></LookAt></gx:FlyTo><gx:Wait><gx:duration>2</gx:duration></gx:Wait><gx:FlyTo><gx:duration>4</gx:duration><gx:flyToMode>smooth</gx:flyToMode><LookAt><latitude>-34.406524640652</latitude><longitude>19.245327424533</longitude><altitude>0</altitude><altitudeMode>relativeToGround</altitudeMode><heading>-47.520742449301</heading><tilt>75</tilt><range>70</range></LookAt></gx:FlyTo><gx:Wait><gx:duration>2</gx:duration></gx:Wait><gx:FlyTo><gx:duration>5</gx:duration><gx:flyToMode>smooth</gx:flyToMode><LookAt><latitude>-34.406524640652</latitude><longitude>19.245327424533</longitude><altitude>0</altitude><altitudeMode>relativeToGround</altitudeMode><heading>222.4792575507</heading><tilt>75</tilt><range>60</range></LookAt></gx:FlyTo><gx:Wait><gx:duration>2</gx:duration></gx:Wait><gx:FlyTo><gx:duration>5</gx:duration><gx:flyToMode>smooth</gx:flyToMode><LookAt><latitude>-34.406524640652</latitude><longitude>19.245327424533</longitude><altitude>0</altitude><altitudeMode>relativeToGround</altitudeMode><heading>132.4792575507</heading><tilt>75</tilt><range>60</range></LookAt></gx:FlyTo><gx:Wait><gx:duration>2</gx:duration></gx:Wait><gx:FlyTo><gx:duration>5</gx:duration><gx:flyToMode>smooth</gx:flyToMode><LookAt><latitude>-34.406524640652</latitude><longitude>19.245327424533</longitude><altitude>0</altitude><altitudeMode>relativeToGround</altitudeMode><heading>42.479257550699</heading><tilt>75</tilt><range>60</range></LookAt></gx:FlyTo><gx:Wait><gx:duration>2</gx:duration></gx:Wait><gx:FlyTo><gx:duration>5</gx:duration><gx:flyToMode>smooth</gx:flyToMode><LookAt><latitude>-34.407716240772</latitude><longitude>19.24870062487</longitude><altitude>22</altitude><altitudeMode>relativeToGround</altitudeMode><heading>-75.422016863064</heading><tilt>70</tilt><range>90</range></LookAt></gx:FlyTo><gx:Wait><gx:duration>5</gx:duration></gx:Wait></gx:Playlist></gx:Tour><gx:Tour><name>Hole 8 - Par 4 - 354 yards</name><gx:Playlist><gx:FlyTo><gx:duration>5</gx:duration><gx:flyToMode>smooth</gx:flyToMode><LookAt><latitude>-34.407591140759</latitude><longitude>19.245558724556</longitude><altitude>22</altitude><altitudeMode>relativeToGround</altitudeMode><heading>106.7826445147</heading><tilt>70</tilt><range>90</range></LookAt></gx:FlyTo><gx:Wait><gx:duration>1</gx:duration></gx:Wait><gx:FlyTo><gx:duration>4</gx:duration><gx:flyToMode>smooth</gx:flyToMode><LookAt><latitude>-34.407591140759</latitude><longitude>19.245558724556</longitude><altitude>14</altitude><altitudeMode>relativeToGround</altitudeMode><heading>106.7826445147</heading><tilt>74</tilt><range>60</range></LookAt></gx:FlyTo><gx:Wait><gx:duration>2</gx:duration></gx:Wait><gx:FlyTo><gx:duration>4</gx:duration><gx:flyToMode>smooth</gx:flyToMode><LookAt><latitude>-34.408208540821</latitude><longitude>19.248040024804</longitude><altitude>9.4249257023807</altitude><altitudeMode>relativeToGround</altitudeMode><heading>97.854378934507</heading><tilt>75</tilt><range>48.579714312771</range></LookAt></gx:FlyTo><gx:Wait><gx:duration>2</gx:duration></gx:Wait><gx:FlyTo><gx:duration>4</gx:duration><gx:flyToMode>smooth</gx:flyToMode><LookAt><latitude>-34.408313840831</latitude><longitude>19.248965224897</longitude><altitude>0</altitude><altitudeMode>relativeToGround</altitudeMode><heading>97.854378934507</heading><tilt>75</tilt><range>70</range></LookAt></gx:FlyTo><gx:Wait><gx:duration>2</gx:duration></gx:Wait><gx:FlyTo><gx:duration>5</gx:duration><gx:flyToMode>smooth</gx:flyToMode><LookAt><latitude>-34.408313840831</latitude><longitude>19.248965224897</longitude><altitude>0</altitude><altitudeMode>relativeToGround</altitudeMode><heading>7.8543789345069</heading><tilt>75</tilt><range>60</range></LookAt></gx:FlyTo><gx:Wait><gx:duration>2</gx:duration></gx:Wait><gx:FlyTo><gx:duration>5</gx:duration><gx:flyToMode>smooth</gx:flyToMode><LookAt><latitude>-34.408313840831</latitude><longitude>19.248965224897</longitude><altitude>0</altitude><altitudeMode>relativeToGround</altitudeMode><heading>277.85437893451</heading><tilt>75</tilt><range>60</range></LookAt></gx:FlyTo><gx:Wait><gx:duration>2</gx:duration></gx:Wait><gx:FlyTo><gx:duration>5</gx:duration><gx:flyToMode>smooth</gx:flyToMode><LookAt><latitude>-34.408313840831</latitude><longitude>19.248965224897</longitude><altitude>0</altitude><altitudeMode>relativeToGround</altitudeMode><heading>187.85437893451</heading><tilt>75</tilt><range>60</range></LookAt></gx:FlyTo><gx:Wait><gx:duration>2</gx:duration></gx:Wait><gx:FlyTo><gx:duration>5</gx:duration><gx:flyToMode>smooth</gx:flyToMode><LookAt><latitude>-34.407591140759</latitude><longitude>19.245558724556</longitude><altitude>22</altitude><altitudeMode>relativeToGround</altitudeMode><heading>106.7826445147</heading><tilt>70</tilt><range>90</range></LookAt></gx:FlyTo><gx:Wait><gx:duration>5</gx:duration></gx:Wait></gx:Playlist></gx:Tour><gx:Tour><name>Hole 9 - Par 5 - 592 yards</name><gx:Playlist><gx:FlyTo><gx:duration>5</gx:duration><gx:flyToMode>smooth</gx:flyToMode><LookAt><latitude>-34.409277740928</latitude><longitude>19.248306424831</longitude><altitude>22</altitude><altitudeMode>relativeToGround</altitudeMode><heading>118.30746133187</heading><tilt>70</tilt><range>90</range></LookAt></gx:FlyTo><gx:Wait><gx:duration>1</gx:duration></gx:Wait><gx:FlyTo><gx:duration>4</gx:duration><gx:flyToMode>smooth</gx:flyToMode><LookAt><latitude>-34.409277740928</latitude><longitude>19.248306424831</longitude><altitude>14</altitude><altitudeMode>relativeToGround</altitudeMode><heading>118.30746133187</heading><tilt>74</tilt><range>60</range></LookAt></gx:FlyTo><gx:Wait><gx:duration>2</gx:duration></gx:Wait><gx:FlyTo><gx:duration>4</gx:duration><gx:flyToMode>smooth</gx:flyToMode><LookAt><latitude>-34.410427941043</latitude><longitude>19.250894825089</longitude><altitude>11</altitude><altitudeMode>relativeToGround</altitudeMode><heading>90.731547493838</heading><tilt>75</tilt><range>45</range></LookAt></gx:FlyTo><gx:Wait><gx:duration>2</gx:duration></gx:Wait><gx:FlyTo><gx:duration>4</gx:duration><gx:flyToMode>smooth</gx:flyToMode><LookAt><latitude>-34.410453141045</latitude><longitude>19.253287025329</longitude><altitude>5.7814108030623</altitude><altitudeMode>relativeToGround</altitudeMode><heading>94.039900356974</heading><tilt>75</tilt><range>56.86042999304</range></LookAt></gx:FlyTo><gx:Wait><gx:duration>2</gx:duration></gx:Wait><gx:FlyTo><gx:duration>4</gx:duration><gx:flyToMode>smooth</gx:flyToMode><LookAt><latitude>-34.410486441049</latitude><longitude>19.253858525386</longitude><altitude>0</altitude><altitudeMode>relativeToGround</altitudeMode><heading>94.039900356974</heading><tilt>75</tilt><range>70</range></LookAt></gx:FlyTo><gx:Wait><gx:duration>2</gx:duration></gx:Wait><gx:FlyTo><gx:duration>5</gx:duration><gx:flyToMode>smooth</gx:flyToMode><LookAt><latitude>-34.410486441049</latitude><longitude>19.253858525386</longitude><altitude>0</altitude><altitudeMode>relativeToGround</altitudeMode><heading>4.0399003569744</heading><tilt>75</tilt><range>60</range></LookAt></gx:FlyTo><gx:Wait><gx:duration>2</gx:duration></gx:Wait><gx:FlyTo><gx:duration>5</gx:duration><gx:flyToMode>smooth</gx:flyToMode><LookAt><latitude>-34.410486441049</latitude><longitude>19.253858525386</longitude><altitude>0</altitude><altitudeMode>relativeToGround</altitudeMode><heading>274.03990035697</heading><tilt>75</tilt><range>60</range></LookAt></gx:FlyTo><gx:Wait><gx:duration>2</gx:duration></gx:Wait><gx:FlyTo><gx:duration>5</gx:duration><gx:flyToMode>smooth</gx:flyToMode><LookAt><latitude>-34.410486441049</latitude><longitude>19.253858525386</longitude><altitude>0</altitude><altitudeMode>relativeToGround</altitudeMode><heading>184.03990035697</heading><tilt>75</tilt><range>60</range></LookAt></gx:FlyTo><gx:Wait><gx:duration>2</gx:duration></gx:Wait><gx:FlyTo><gx:duration>5</gx:duration><gx:flyToMode>smooth</gx:flyToMode><LookAt><latitude>-34.409277740928</latitude><longitude>19.248306424831</longitude><altitude>22</altitude><altitudeMode>relativeToGround</altitudeMode><heading>118.30746133187</heading><tilt>70</tilt><range>90</range></LookAt></gx:FlyTo><gx:Wait><gx:duration>5</gx:duration></gx:Wait></gx:Playlist></gx:Tour></Document></kml>
